ONEWEB-0012             
1 44057U 19010A   24323.80420398  .00000012  00000+0 -22928-5 0  9990
2 44057  87.9091 343.4347 0002402  75.6787 284.4611 13.16592342275884
ONEWEB-0010             
1 44058U 19010B   24323.29754425  .00000105  00000+0  24196-3 0  9994
2 44058  87.9095 343.5165 0001620  76.0512 284.0799 13.16597108275833
ONEWEB-0008             
1 44059U 19010C   24323.77886519  .00000020  00000+0  17542-4 0  9992
2 44059  87.9091 343.4217 0001839 100.0711 260.0627 13.16596397276023
ONEWEB-0007             
1 44060U 19010D   24323.50900994  .00000232  00000+0  58099-3 0  9995
2 44060  87.9104  13.8147 0002060  87.4913 272.6454 13.15547553275686
ONEWEB-0006             
1 44061U 19010E   24323.20873788  .00000173  00000+0  42682-3 0  9998
2 44061  87.9093  13.8433 0001837  87.6388 272.4953 13.15546590275694
ONEWEB-0011             
1 44062U 19010F   24323.40679399 -.00000378  00000+0 -10377-2 0  9997
2 44062  87.9096  13.8075 0001534  96.5395 263.5910 13.15547422275713
ONEWEB-0013             
1 45131U 20008A   24323.86147262  .00000414  00000+0  11656-2 0  9993
2 45131  87.8643 168.6862 0002476  89.5303 270.6107 13.09406151231533
ONEWEB-0017             
1 45132U 20008B   24323.49326537 -.00000177  00000+0 -54450-3 0  9995
2 45132  87.8896 150.9131 0001360  79.2026 280.9255 13.10377147232551
